[{"OBJECT_NAME":"STARLINK-4092","OBJECT_ID":"2022-062J","EPOCH":"2026-03-09T06:52:27.614208","MEAN_MOTION":15.08831953,"ECCENTRICITY":0.00012857,"INCLINATION":53.2184,"RA_OF_ASC_NODE":35.9212,"ARG_OF_PERICENTER":87.3089,"MEAN_ANOMALY":272.805,"EPHEMERIS_TYPE":0,"CLASSIFICATION_TYPE":"U","NORAD_CAT_ID":52838,"ELEMENT_SET_NO":999,"REV_AT_EPOCH":20572,"BSTAR":-3.5215877e-5,"MEAN_MOTION_DOT":-8.48e-6,"MEAN_MOTION_DDOT":0},{"OBJECT_NAME":"PACE","OBJECT_ID":"2014-033N","EPOCH":"2026-03-09T22:47:44.809152","MEAN_MOTION":15.09745465,"ECCENTRICITY":0.00061206,"INCLINATION":98.125,"RA_OF_ASC_NODE":67.7953,"ARG_OF_PERICENTER":179.3374,"MEAN_ANOMALY":180.7863,"EPHEMERIS_TYPE":0,"CLASSIFICATION_TYPE":"U","NORAD_CAT_ID":40022,"ELEMENT_SET_NO":999,"REV_AT_EPOCH":63805,"BSTAR":0.00051174262,"MEAN_MOTION_DOT":8.193e-5,"MEAN_MOTION_DDOT":0}]
